GOES 1 (SMS-C) [-]      
1 08366U 75100A   22208.23915265 -.00000213  00000+0  00000+0 0  9998
2 08366   8.1826 295.2317 0002392 225.3850 149.3786  1.00280101170829
GOES 2 [-]              
1 10061U 77048A   22208.17122358 -.00000194  00000+0  00000+0 0  9990
2 10061   9.7618 306.6707 0010360  30.3661 327.7518  0.99397126 32148
GOES 3 [-]              
1 10953U 78062A   22208.64427677 -.00000278  00000+0  00000+0 0  9994
2 10953  10.0903 311.1746 0003551 152.8070 225.4761  0.99365898114429
GOES 4 [-]              
1 11964U 80074A   22208.55453323  .00000012  00000+0  00000+0 0  9995
2 11964  11.0505 314.9995 0032837  77.6130 313.8326  0.99231361113344
GOES 5 [-]              
1 12472U 81049A   22208.31153765 -.00000251  00000+0  00000+0 0  9990
2 12472  11.8898 326.3678 0002596 156.2512 217.1432  1.00317686108609
GOES 6 [-]              
1 14050U 83041A   22208.31136324 -.00000247  00000+0  00000+0 0  9995
2 14050  12.4482 331.6716 0005518 144.2693 222.6095  1.00297841201773
GOES 7 [-]              
1 17561U 87022A   22208.63330942  .00000045  00000+0  00000+0 0  9990
2 17561  14.2077 348.2189 0006166  77.4156 300.0064  0.99905282112772
GOES 8 [-]              
1 23051U 94022A   22208.79010697 -.00000261  00000+0  00000+0 0  9999
2 23051  13.2098  23.9049 0007338  51.1449 318.5364  0.98908219110084
GOES 9 [-]              
1 23581U 95025A   22208.58828233  .00000031  00000+0  00000+0 0  9995
2 23581  12.7026  24.2389 0009213  98.4678  89.3878  0.98798277 98720
GOES 10 [-]             
1 24786U 97019A   22208.35405164 -.00000300  00000+0  00000+0 0  9997
2 24786  11.4629  30.4135 0025730 198.3098 339.3846  0.99126942 91988
GOES 11 [-]             
1 26352U 00022A   22207.32150115 -.00000202  00000+0  00000+0 0  9996
2 26352   8.7633  59.0165 0002252  72.9311 282.4030  0.99045299 38385
GOES 12 [-]             
1 26871U 01031A   22207.02003497 -.00000111  00000+0  00000+0 0  9999
2 26871   9.5840  47.9320 0006027 345.9605 199.3493  0.99135871 76660
EWS-G1 (GOES 13) [+]    
1 29155U 06018A   22209.48719575  .00000040  00000+0  00000+0 0  9990
2 29155   0.6977  96.7485 0004770  94.2793 351.6991  1.00274407 59276
GOES 14 [B]             
1 35491U 09033A   22209.55060535 -.00000090  00000+0  00000+0 0  9999
2 35491   0.4113  94.8946 0013956 116.9326 187.9856  1.00273111 47927
GOES 15 [B]             
1 36411U 10008A   22209.52235417  .00000055  00000+0  00000+0 0  9996
2 36411   0.3833 100.2467 0002282  45.5505 220.2822  1.00279789 45439
GOES 16 [+]             
1 41866U 16071A   22208.59901978 -.00000246  00000+0  00000+0 0  9993
2 41866   0.0571 248.0878 0000469 306.5245 251.0774  1.00271780 20869
GOES 17 [+]             
1 43226U 18022A   22208.68452118  .00000100  00000+0  00000+0 0  9998
2 43226   0.0899 259.4325 0000146 292.7246 222.3001  1.00272375 16170
GOES 18 [+]             
1 51850U 22021A   22208.72618910  .00000099  00000+0  00000+0 0  9990
2 51850   0.0455 100.3117 0002658 114.6174 214.8923  1.00271307  1532
